{
  "type": "FeatureCollection",
  "features": [
    {
      "type": "Feature",
      "properties": {
        "norad_id": 66718,
        "name": "FLOCK 4H-15",
        "group": "last-30-days",
        "lat": 73.53228176450386,
        "lon": 44.90512979121154,
        "alt_km": 509.5752503253507,
        "timestamp": "2025-12-25T14:48:23.569485+00:00",
        "meta_object_name": "FLOCK 4H-15",
        "meta_object_id": "2025-276BE",
        "meta_epoch": "2025-12-25T03:23:43.143648",
        "meta_mean_motion": 15.17134211,
        "meta_eccentricity": 0.00030741,
        "meta_inclination": 97.4417,
        "meta_ra_of_asc_node": 70.6812,
        "meta_arg_of_pericenter": 256.5047,
        "meta_mean_anomaly": 103.5844,
        "meta_ephemeris_type": 0,
        "meta_classification_type": "U",
        "meta_norad_cat_id": 66718,
        "meta_element_set_no": 999,
        "meta_rev_at_epoch": 400,
        "meta_bstar": 0.00051689803,
        "meta_mean_motion_dot": 0.00010194,
        "meta_mean_motion_ddot": 0,
        "tle_line1": "1 66718U 25276BE  25359.14147157  .00010194  00000+0  51690-3 0  9992",
        "tle_line2": "2 66718  97.4417  70.6812 0003074 256.5047 103.5844 15.17134211  4004"
      },
      "geometry": {
        "type": "Point",
        "coordinates": [
          44.90512979121154,
          73.53228176450386
        ]
      }
    },
    {
      "type": "Feature",
      "properties": {
        "norad_id": 66719,
        "name": "FLOCK 4H-16",
        "group": "last-30-days",
        "lat": 81.35322649217639,
        "lon": 11.875529577503434,
        "alt_km": 508.7443384836424,
        "timestamp": "2025-12-25T14:48:23.569494+00:00",
        "meta_object_name": "FLOCK 4H-16",
        "meta_object_id": "2025-276BF",
        "meta_epoch": "2025-12-25T08:00:01.000224",
        "meta_mean_motion": 15.17275496,
        "meta_eccentricity": 0.00032585,
        "meta_inclination": 97.4432,
        "meta_ra_of_asc_node": 70.8796,
        "meta_arg_of_pericenter": 240.1784,
        "meta_mean_anomaly": 97.396,
        "meta_ephemeris_type": 0,
        "meta_classification_type": "U",
        "meta_norad_cat_id": 66719,
        "meta_element_set_no": 999,
        "meta_rev_at_epoch": 345,
        "meta_bstar": -0.0026363765,
        "meta_mean_motion_dot": -0.00052161,
        "meta_mean_motion_ddot": 0,
        "tle_line1": "1 66719U 25276BF  25359.33334491 -.00052161  00000+0 -26364-2 0  9994",
        "tle_line2": "2 66719  97.4432  70.8796 0003258 240.1784  97.3960 15.17275496  3454"
      },
      "geometry": {
        "type": "Point",
        "coordinates": [
          11.875529577503434,
          81.35322649217639
        ]
      }
    },
    {
      "type": "Feature",
      "properties": {
        "norad_id": 66720,
        "name": "FLOCK 4H-17",
        "group": "last-30-days",
        "lat": 15.407240254768954,
        "lon": -106.74070214874948,
        "alt_km": 510.50402946059603,
        "timestamp": "2025-12-25T14:48:23.569506+00:00",
        "meta_object_name": "FLOCK 4H-17",
        "meta_object_id": "2025-276BG",
        "meta_epoch": "2025-12-25T06:10:30.840096",
        "meta_mean_motion": 15.18097024,
        "meta_eccentricity": 0.00029098,
        "meta_inclination": 97.4436,
        "meta_ra_of_asc_node": 70.8407,
        "meta_arg_of_pericenter": 180.339,
        "meta_mean_anomaly": 179.7842,
        "meta_ephemeris_type": 0,
        "meta_classification_type": "U",
        "meta_norad_cat_id": 66720,
        "meta_element_set_no": 999,
        "meta_rev_at_epoch": 402,
        "meta_bstar": 0.0005184253,
        "meta_mean_motion_dot": 0.00010511,
        "meta_mean_motion_ddot": 0,
        "tle_line1": "1 66720U 25276BG  25359.25730139  .00010511  00000+0  51843-3 0  9998",
        "tle_line2": "2 66720  97.4436  70.8407 0002909 180.3390 179.7842 15.18097024  4027"
      },
      "geometry": {
        "type": "Point",
        "coordinates": [
          -106.74070214874948,
          15.407240254768954
        ]
      }
    },
    {
      "type": "Feature",
      "properties": {
        "norad_id": 66721,
        "name": "FLOCK 4H-18",
        "group": "last-30-days",
        "lat": 76.40624702021009,
        "lon": 38.43286486704265,
        "alt_km": 508.82742404986675,
        "timestamp": "2025-12-25T14:48:23.569515+00:00",
        "meta_object_name": "FLOCK 4H-18",
        "meta_object_id": "2025-276BH",
        "meta_epoch": "2025-12-25T03:22:51.760704",
        "meta_mean_motion": 15.17168057,
        "meta_eccentricity": 0.00024414,
        "meta_inclination": 97.4377,
        "meta_ra_of_asc_node": 70.6661,
        "meta_arg_of_pericenter": 271.3614,
        "meta_mean_anomaly": 88.734,
        "meta_ephemeris_type": 0,
        "meta_classification_type": "U",
        "meta_norad_cat_id": 66721,
        "meta_element_set_no": 999,
        "meta_rev_at_epoch": 400,
        "meta_bstar": 0.00051903977,
        "meta_mean_motion_dot": 0.00010246,
        "meta_mean_motion_ddot": 0,
        "tle_line1": "1 66721U 25276BH  25359.14087686  .00010246  00000+0  51904-3 0  9992",
        "tle_line2": "2 66721  97.4377  70.6661 0002441 271.3614  88.7340 15.17168057  4007"
      },
      "geometry": {
        "type": "Point",
        "coordinates": [
          38.43286486704265,
          76.40624702021009
        ]
      }
    },
    {
      "type": "Feature",
      "properties": {
        "norad_id": 66722,
        "name": "FLOCK 4H-19",
        "group": "last-30-days",
        "lat": -1.7920727198618787,
        "lon": -109.05540700243814,
        "alt_km": 512.8077484467476,
        "timestamp": "2025-12-25T14:48:23.569524+00:00",
        "meta_object_name": "FLOCK 4H-19",
        "meta_object_id": "2025-276BJ",
        "meta_epoch": "2025-12-25T06:06:01.458720",
        "meta_mean_motion": 15.18302236,
        "meta_eccentricity": 0.00025742,
        "meta_inclination": 97.4382,
        "meta_ra_of_asc_node": 70.8221,
        "meta_arg_of_pericenter": 147.422,
        "meta_mean_anomaly": 212.7173,
        "meta_ephemeris_type": 0,
        "meta_classification_type": "U",
        "meta_norad_cat_id": 66722,
        "meta_element_set_no": 999,
        "meta_rev_at_epoch": 331,
        "meta_bstar": 0.0008102627,
        "meta_mean_motion_dot": 0.00016576,
        "meta_mean_motion_ddot": 0,
        "tle_line1": "1 66722U 25276BJ  25359.25418355  .00016576  00000+0  81026-3 0  9996",
        "tle_line2": "2 66722  97.4382  70.8221 0002574 147.4220 212.7173 15.18302236  3317"
      },
      "geometry": {
        "type": "Point",
        "coordinates": [
          -109.05540700243814,
          -1.7920727198618787
        ]
      }
    },
    {
      "type": "Feature",
      "properties": {
        "norad_id": 66723,
        "name": "FLOCK 4H-20",
        "group": "last-30-days",
        "lat": -5.695900174445166,
        "lon": -109.55170335058611,
        "alt_km": 512.7097373166398,
        "timestamp": "2025-12-25T14:48:23.569532+00:00",
        "meta_object_name": "FLOCK 4H-20",
        "meta_object_id": "2025-276BK",
        "meta_epoch": "2025-12-25T06:04:59.897856",
        "meta_mean_motion": 15.18344359,
        "meta_eccentricity": 0.00030383,
        "meta_inclination": 97.4418,
        "meta_ra_of_asc_node": 70.8377,
        "meta_arg_of_pericenter": 162.4257,
        "meta_mean_anomaly": 197.7083,
        "meta_ephemeris_type": 0,
        "meta_classification_type": "U",
        "meta_norad_cat_id": 66723,
        "meta_element_set_no": 999,
        "meta_rev_at_epoch": 327,
        "meta_bstar": 0.00057205612,
        "meta_mean_motion_dot": 0.0001169,
        "meta_mean_motion_ddot": 0,
        "tle_line1": "1 66723U 25276BK  25359.25347104  .00011690  00000+0  57206-3 0  9995",
        "tle_line2": "2 66723  97.4418  70.8377 0003038 162.4257 197.7083 15.18344359  3272"
      },
      "geometry": {
        "type": "Point",
        "coordinates": [
          -109.55170335058611,
          -5.695900174445166
        ]
      }
    },
    {
      "type": "Feature",
      "properties": {
        "norad_id": 66724,
        "name": "FLOCK 4H-21",
        "group": "last-30-days",
        "lat": -9.135399232198354,
        "lon": -110.0224766282795,
        "alt_km": 513.159038370929,
        "timestamp": "2025-12-25T14:48:23.569541+00:00",
        "meta_object_name": "FLOCK 4H-21",
        "meta_object_id": "2025-276BL",
        "meta_epoch": "2025-12-25T06:04:06.048192",
        "meta_mean_motion": 15.18390959,
        "meta_eccentricity": 0.00029253,
        "meta_inclination": 97.4384,
        "meta_ra_of_asc_node": 70.8233,
        "meta_arg_of_pericenter": 158.7136,
        "meta_mean_anomaly": 201.422,
        "meta_ephemeris_type": 0,
        "meta_classification_type": "U",
        "meta_norad_cat_id": 66724,
        "meta_element_set_no": 999,
        "meta_rev_at_epoch": 327,
        "meta_bstar": 0.00048185892,
        "meta_mean_motion_dot": 9.847e-05,
        "meta_mean_motion_ddot": 0,
        "tle_line1": "1 66724U 25276BL  25359.25284778  .00009847  00000+0  48186-3 0  9991",
        "tle_line2": "2 66724  97.4384  70.8233 0002925 158.7136 201.4220 15.18390959  3277"
      },
      "geometry": {
        "type": "Point",
        "coordinates": [
          -110.0224766282795,
          -9.135399232198354
        ]
      }
    }
  ]
}